{
  "type": "Feature",
  "geometry": {
    "coordinates": [
      [
        13.77136,
        45.63446
      ],
      [
        13.75763,
        45.61661
      ],
      [
        13.73566,
        45.6221
      ],
      [
        13.72192,
        45.63171
      ],
      [
        13.721705429687502,
        45.631731484374995
      ],
      [
        13.721276289062502,
        45.631774453125004
      ],
      [
        13.720632578125002,
        45.63183890625
      ],
      [
        13.719774296875,
        45.63192484375
      ],
      [
        13.718701445312501,
        45.63203226562499
      ],
      [
        13.7174140234375,
        45.632161171875
      ],
      [
        13.715912031250001,
        45.6323115625
      ],
      [
        13.714195468750003,
        45.6324834375
      ],
      [
        13.712264335937501,
        45.632676796875
      ],
      [
        13.710118632812502,
        45.632891640625004
      ],
      [
        13.707758359375003,
        45.63312796875
      ],
      [
        13.705183515625002,
        45.633385781250006
      ],
      [
        13.7023941015625,
        45.633665078125006
      ],
      [
        13.699390117187502,
        45.633965859375
      ],
      [
        13.696171562500002,
        45.634288125000005
      ],
      [
        13.692738437500001,
        45.634631875000004
      ],
      [
        13.688489921875,
        45.634439140625005
      ],
      [
        13.683426015625002,
        45.633709921874996
      ],
      [
        13.677546718750001,
        45.632444218749995
      ],
      [
        13.670852031250003,
        45.630642031250005
      ],
      [
        13.663341953125004,
        45.628303359375
      ],
      [
        13.655016484375004,
        45.625428203125004
      ],
      [
        13.645875625000002,
        45.6220165625
      ],
      [
        13.635919375,
        45.6180684375
      ],
      [
        13.625147734375,
        45.613583828125
      ],
      [
        13.613560703125,
        45.608562734375
      ],
      [
        13.601158281250001,
        45.60300515625
      ],
      [
        13.587940468750002,
        45.596911093749995
      ],
      [
        13.573907265625001,
        45.590280546875
      ],
      [
        13.559058671875,
        45.583113515624994
      ],
      [
        13.5433946875,
        45.57541
      ],
      [
        13.526915312500002,
        45.567170000000004
      ],
      [
        13.512180006250002,
        45.559321412500005
      ],
      [
        13.49918876875,
        45.551864237500006
      ],
      [
        13.487941600000001,
        45.54479847500001
      ],
      [
        13.478438500000001,
        45.538124125
      ],
      [
        13.470300445000001,
        45.53107488250001
      ],
      [
        13.463527435,
        45.523650747500014
      ],
      [
        13.45205509,
        45.50359084000001
      ],
      [
        13.43588341,
        45.47089516
      ],
      [
        13.430796893125,
        45.432398815
      ],
      [
        13.436795539375002,
        45.388101805
      ],
      [
        13.44781496875,
        45.32574325
      ],
      [
        13.46385518125,
        45.24532315
      ],
      [
        13.484537153125,
        45.1460752
      ],
      [
        13.509860884375,
        45.0279994
      ],
      [
        13.539826375,
        44.89109575
      ],
      [
        13.574433625,
        44.73536425
      ],
      [
        13.615941624999998,
        44.591151273437504
      ],
      [
        13.664350374999998,
        44.4584568203125
      ],
      [
        13.719659874999998,
        44.337280890624996
      ],
      [
        13.781870124999998,
        44.22762348437501
      ],
      [
        13.850981124999999,
        44.12948460156251
      ],
      [
        13.926992875,
        44.042864242187505
      ],
      [
        14.009905374999999,
        43.96776240625
      ],
      [
        14.099718625,
        43.90417909375
      ],
      [
        14.200277875,
        43.8348108046875
      ],
      [
        14.311583125000002,
        43.7596575390625
      ],
      [
        14.433634375,
        43.678719296875
      ],
      [
        14.566431625000002,
        43.591996078125
      ],
      [
        14.709974875000002,
        43.4994878828125
      ],
      [
        14.864264125000002,
        43.40119471093749
      ],
      [
        15.029299375,
        43.297116562499994
      ],
      [
        15.205080625,
        43.187253437500004
      ],
      [
        15.375926601562501,
        43.085222343750004
      ],
      [
        15.541837304687501,
        42.99102328125001
      ],
      [
        15.702812734375001,
        42.90465625000001
      ],
      [
        15.858852890625002,
        42.82612125000001
      ],
      [
        16.009957773437502,
        42.75541828125
      ],
      [
        16.156127382812503,
        42.69254734375001
      ],
      [
        16.297361718750004,
        42.6375084375
      ],
      [
        16.433660781249998,
        42.5903015625
      ],
      [
        16.5650245703125,
        42.550926718750006
      ],
      [
        16.6914530859375,
        42.51938390625
      ],
      [
        16.812946328125,
        42.495673125
      ],
      [
        16.929504296875,
        42.479794375000004
      ],
      [
        17.0411269921875,
        42.47174765625
      ],
      [
        17.1478144140625,
        42.471532968750004
      ],
      [
        17.2495665625,
        42.4791503125
      ],
      [
        17.346383437500002,
        42.4945996875
      ],
      [
        17.4372136328125,
        42.5091156640625
      ],
      [
        17.522057148437504,
        42.5226982421875
      ],
      [
        17.600913984375,
        42.535347421875
      ],
      [
        17.673784140625003,
        42.547063203125
      ],
      [
        17.740667617187505,
        42.5578455859375
      ],
      [
        17.801564414062504,
        42.567694570312504
      ],
      [
        17.85647453125,
        42.576610156250005
      ],
      [
        17.905397968750002,
        42.584592343749996
      ],
      [
        17.9483347265625,
        42.5916411328125
      ],
      [
        17.9852848046875,
        42.5977565234375
      ],
      [
        18.016248203125,
        42.602938515625
      ],
      [
        18.041224921875003,
        42.607187109375005
      ],
      [
        18.0602149609375,
        42.6105023046875
      ],
      [
        18.073218320312503,
        42.6128841015625
      ],
      [
        18.079720000000002,
        42.614075
      ],
      [
        18.081780000000002,
        42.615105
      ],
      [
        18.082037500000002,
        42.61523375
      ],
      [
        18.082552500000002,
        42.61549125
      ],
      [
        18.082810000000002,
        42.61562
      ],
      [
        18.084870000000002,
        42.61665
      ],
      [
        18.08899,
        42.61871
      ],
      [
        18.0939501,
        42.6491029
      ]
    ],
    "type": "LineString"
  },
  "properties": {
    "name": "Triest → Dubrownik",
    "rejs_id": "Rejs 3",
    "etap_nr": 1,
    "zakres_dni": "Dni 1–2",
    "distance_nm": 326.67983067683235,
    "route_fingerprint": "851099b1a74a07d9d76f95dd7a6cccd7be5dd5d5be9fb4392acde8c11eefa097"
  }
}