{
  "type": "Feature",
  "geometry": {
    "coordinates": [
      [
        18.0939501,
        42.6491029
      ],
      [
        18.09448,
        42.61047
      ],
      [
        18.0972694921875,
        42.599548046875
      ],
      [
        18.1028484765625,
        42.577704140625
      ],
      [
        18.111216953125,
        42.544938281250005
      ],
      [
        18.122374921875,
        42.501250468749994
      ],
      [
        18.136322382812498,
        42.446640703125
      ],
      [
        18.1530593359375,
        42.381108984375
      ],
      [
        18.17258578125,
        42.3046553125
      ],
      [
        18.194901718749996,
        42.217279687499996
      ],
      [
        18.220007148437496,
        42.118982109375
      ],
      [
        18.2479020703125,
        42.009762578125
      ],
      [
        18.278586484374998,
        41.88962109375
      ],
      [
        18.312060390625,
        41.75855765625
      ],
      [
        18.348323789062498,
        41.616572265625
      ],
      [
        18.3873766796875,
        41.463664921875
      ],
      [
        18.4292190625,
        41.299835625
      ],
      [
        18.4738509375,
        41.125084375
      ],
      [
        18.5110241328125,
        40.957547203125
      ],
      [
        18.5407386484375,
        40.797224109375
      ],
      [
        18.562994484375,
        40.64411509375
      ],
      [
        18.577791640625,
        40.49822015625
      ],
      [
        18.5851301171875,
        40.359539296875
      ],
      [
        18.5850099140625,
        40.228072515625
      ],
      [
        18.57743103125,
        40.1038198125
      ],
      [
        18.56239346875,
        39.9867811875
      ],
      [
        18.5118821015625,
        39.854709390625
      ],
      [
        18.4258969296875,
        39.707604421875
      ],
      [
        18.304437953125,
        39.54546628124999
      ],
      [
        18.147505171875,
        39.36829496875
      ],
      [
        17.9550985859375,
        39.176090484374996
      ],
      [
        17.727218195312503,
        38.968852828125
      ],
      [
        17.463864,
        38.746582000000004
      ],
      [
        17.165036,
        38.509277999999995
      ],
      [
        16.896124265625,
        38.2980256875
      ],
      [
        16.657128796875,
        38.1128250625
      ],
      [
        16.44804959375,
        37.953676125
      ],
      [
        16.26888665625,
        37.820578875
      ],
      [
        16.119639984375,
        37.7135333125
      ],
      [
        16.000309578124998,
        37.6325394375
      ],
      [
        15.910895437499999,
        37.57759725
      ],
      [
        15.8513975625,
        37.54870675
      ],
      [
        15.793800828124999,
        37.5236206875
      ],
      [
        15.738105234374999,
        37.5023390625
      ],
      [
        15.68431078125,
        37.484861875
      ],
      [
        15.632417468749999,
        37.471189124999995
      ],
      [
        15.582425296875,
        37.4613208125
      ],
      [
        15.534334265625,
        37.455256937499996
      ],
      [
        15.488144375000001,
        37.452997499999995
      ],
      [
        15.443855625,
        37.4545425
      ],
      [
        15.402334921875,
        37.4559909375
      ],
      [
        15.363582265625,
        37.457342812499995
      ],
      [
        15.32759765625,
        37.458598124999995
      ],
      [
        15.29438109375,
        37.459756875
      ],
      [
        15.263932578124999,
        37.46081906249999
      ],
      [
        15.236252109374998,
        37.4617846875
      ],
      [
        15.211339687499999,
        37.46265375
      ],
      [
        15.189195312499999,
        37.46342625
      ],
      [
        15.169818984374999,
        37.4641021875
      ],
      [
        15.153210703125001,
        37.464681562500004
      ],
      [
        15.139370468750002,
        37.465164375
      ],
      [
        15.12829828125,
        37.465550625
      ],
      [
        15.122762187500001,
        37.46574375
      ],
      [
        15.11169,
        37.46613
      ],
      [
        15.10345,
        37.47025
      ],
      [
        15.08698,
        37.48398
      ],
      [
        15.0873718,
        37.5023612
      ]
    ],
    "type": "LineString"
  },
  "properties": {
    "name": "Dubrownik → Katania",
    "rejs_id": "Rejs 3",
    "etap_nr": 2,
    "zakres_dni": "Dni 3–4",
    "distance_nm": 396.9795591687964,
    "route_fingerprint": "02df69439b989d80c8e5932b16a2506dd67591b5c4fb4b925aa98c85e812e9c8"
  }
}