{
  "type": "Feature",
  "geometry": {
    "coordinates": [
      [
        15.0873718,
        37.5023612
      ],
      [
        15.08698,
        37.48398
      ],
      [
        15.10345,
        37.47849
      ],
      [
        15.11169,
        37.46613
      ],
      [
        15.113406875,
        37.46527125
      ],
      [
        15.113621484375,
        37.46516390625
      ],
      [
        15.114050703125,
        37.46494921875001
      ],
      [
        15.11469453125,
        37.4646271875
      ],
      [
        15.115552968750002,
        37.464197812500004
      ],
      [
        15.116518710937502,
        37.463714765625
      ],
      [
        15.117591757812502,
        37.463178046875
      ],
      [
        15.118772109375001,
        37.46258765625
      ],
      [
        15.120059765625001,
        37.46194359375
      ],
      [
        15.1214547265625,
        37.461245859375
      ],
      [
        15.1229569921875,
        37.460494453125
      ],
      [
        15.1245665625,
        37.459689375
      ],
      [
        15.1262834375,
        37.458830625
      ],
      [
        15.128103281249999,
        37.458469737499996
      ],
      [
        15.130026093749999,
        37.4586067125
      ],
      [
        15.132051874999998,
        37.45924155
      ],
      [
        15.134180624999999,
        37.46037425
      ],
      [
        15.1357771875,
        37.461223775
      ],
      [
        15.136841562499999,
        37.461790125
      ],
      [
        15.14753625,
        37.4745699
      ],
      [
        15.167861250000001,
        37.4995631
      ],
      [
        15.183834453125002,
        37.52068996875
      ],
      [
        15.195455859375002,
        37.537950506250006
      ],
      [
        15.212887968750003,
        37.5638413125
      ],
      [
        15.236130781250003,
        37.5983623875
      ],
      [
        15.264549140625004,
        37.64073269375
      ],
      [
        15.298143046875003,
        37.69095223125
      ],
      [
        15.3369125,
        37.749021
      ],
      [
        15.380857500000001,
        37.814939
      ],
      [
        15.42015296875,
        37.873793429687495
      ],
      [
        15.454798906249998,
        37.9255842890625
      ],
      [
        15.4847953125,
        37.97031157812499
      ],
      [
        15.5101421875,
        38.007975296875
      ],
      [
        15.530839531249999,
        38.0385754453125
      ],
      [
        15.546887343749999,
        38.06211202343749
      ],
      [
        15.558285625,
        38.07858503125
      ],
      [
        15.565034375,
        38.08799446875
      ],
      [
        15.571253437499998,
        38.096520148437506
      ],
      [
        15.5769428125,
        38.1041620703125
      ],
      [
        15.5821025,
        38.110920234375
      ],
      [
        15.5867325,
        38.116794640625
      ],
      [
        15.5908328125,
        38.1217852890625
      ],
      [
        15.5944034375,
        38.125892179687504
      ],
      [
        15.597444375,
        38.129115312500005
      ],
      [
        15.599955625,
        38.131454687499996
      ],
      [
        15.602309921874998,
        38.1336478515625
      ],
      [
        15.604507265624997,
        38.135694804687496
      ],
      [
        15.606547656249997,
        38.137595546875
      ],
      [
        15.608431093750003,
        38.139350078125
      ],
      [
        15.610157578125003,
        38.1409583984375
      ],
      [
        15.611727109375,
        38.1424205078125
      ],
      [
        15.6131396875,
        38.14373640625
      ],
      [
        15.614395312500001,
        38.14490609375
      ],
      [
        15.615493984375,
        38.145929570312504
      ],
      [
        15.616435703125,
        38.1468068359375
      ],
      [
        15.617220468749998,
        38.147537890625
      ],
      [
        15.61784828125,
        38.14812273437501
      ],
      [
        15.618319140625001,
        38.148561367187504
      ],
      [
        15.618633046874999,
        38.1488537890625
      ],
      [
        15.61879,
        38.149
      ],
      [
        15.61798,
        38.2307
      ],
      [
        15.63144,
        38.238
      ],
      [
        15.65029,
        38.245
      ],
      [
        15.66914,
        38.252
      ],
      [
        15.68799,
        38.259
      ],
      [
        15.69622,
        38.266
      ],
      [
        15.69986,
        38.2705
      ],
      [
        15.699748109374998,
        38.270641914062494
      ],
      [
        15.699524328124998,
        38.2709257421875
      ],
      [
        15.699188656249998,
        38.271351484374996
      ],
      [
        15.698741093749998,
        38.271919140625
      ],
      [
        15.698181640624998,
        38.2726287109375
      ],
      [
        15.697510296874999,
        38.2734801953125
      ],
      [
        15.696727062499999,
        38.27447359375
      ],
      [
        15.6958319375,
        38.27560890625
      ],
      [
        15.694243090625,
        38.2776240859375
      ],
      [
        15.691960521875,
        38.28051913281249
      ],
      [
        15.68898423125,
        38.28429404687499
      ],
      [
        15.68531421875,
        38.288948828125
      ],
      [
        15.68053425125,
        38.295011396875005
      ],
      [
        15.65697456125,
        38.324892821875
      ],
      [
        15.6411398,
        38.344976499999994
      ],
      [
        15.6153602,
        38.3776735
      ],
      [
        15.5927047546875,
        38.4045615859375
      ],
      [
        15.5731734640625,
        38.425640757812495
      ],
      [
        15.556766328124999,
        38.440911015625
      ],
      [
        15.543483346875,
        38.450372359374995
      ],
      [
        15.5284908453125,
        38.4601554765625
      ],
      [
        15.5117888234375,
        38.47026036718749
      ],
      [
        15.49337728125,
        38.48068703125
      ],
      [
        15.473256218749999,
        38.49143546875
      ],
      [
        15.4508438046875,
        38.503243632812506
      ],
      [
        15.4261400390625,
        38.5161115234375
      ],
      [
        15.399144921875,
        38.53003914062501
      ],
      [
        15.369858453124998,
        38.545026484375
      ],
      [
        15.338280632812499,
        38.5610735546875
      ],
      [
        15.3044114609375,
        38.57818035156251
      ],
      [
        15.2682509375,
        38.59634687500001
      ],
      [
        15.2297990625,
        38.615573125
      ],
      [
        15.18139078125,
        38.64595734375
      ],
      [
        15.12302609375,
        38.68749953125
      ],
      [
        15.054705,
        38.7401996875
      ],
      [
        14.9764275,
        38.804057812500005
      ],
      [
        14.88819359375,
        38.87907390625001
      ],
      [
        14.79000328125,
        38.965247968750006
      ],
      [
        14.6818565625,
        39.062580000000004
      ],
      [
        14.5637534375,
        39.17107000000001
      ],
      [
        14.43569390625,
        39.29071796875
      ],
      [
        14.29767796875,
        39.42152390625
      ],
      [
        14.149705625,
        39.56348781250001
      ],
      [
        13.991776875000001,
        39.716609687500004
      ],
      [
        13.823891718750001,
        39.880889531250006
      ],
      [
        13.64605015625,
        40.056327343750006
      ],
      [
        13.4582521875,
        40.242923125000004
      ],
      [
        13.2604978125,
        40.440676875
      ],
      [
        13.075188945312501,
        40.626457265625
      ],
      [
        12.9023255859375,
        40.800264296875
      ],
      [
        12.741907734375001,
        40.96209796875
      ],
      [
        12.593935390625,
        41.11195828125
      ],
      [
        12.4584085546875,
        41.249845234375
      ],
      [
        12.3353272265625,
        41.375758828125
      ],
      [
        12.224691406249999,
        41.4896990625
      ],
      [
        12.126501093749999,
        41.5916659375
      ],
      [
        12.0407562890625,
        41.681659453125
      ],
      [
        11.9674569921875,
        41.759679609375
      ],
      [
        11.906603203125,
        41.82572640625
      ],
      [
        11.858194921875,
        41.87979984375
      ],
      [
        11.8222321484375,
        41.921899921874996
      ],
      [
        11.798714882812499,
        41.952026640625
      ],
      [
        11.787643124999999,
        41.97018
      ],
      [
        11.789016875000002,
        41.97636
      ],
      [
        11.790304765625,
        41.98215375
      ],
      [
        11.791506796875,
        41.98756125
      ],
      [
        11.792622968749999,
        41.992582500000005
      ],
      [
        11.79365328125,
        41.9972175
      ],
      [
        11.794597734375,
        42.00146625
      ],
      [
        11.795456328125002,
        42.005328750000004
      ],
      [
        11.7962290625,
        42.008805
      ],
      [
        11.7969159375,
        42.011895
      ],
      [
        11.797516953125001,
        42.014598750000005
      ],
      [
        11.798032109375,
        42.01691625
      ],
      [
        11.798461406249999,
        42.0188475
      ],
      [
        11.798804843749998,
        42.0203925
      ],
      [
        11.799062421874998,
        42.021551249999995
      ],
      [
        11.799234140625,
        42.02232375
      ],
      [
        11.79932,
        42.02271
      ],
      [
        11.79108,
        42.07901
      ]
    ],
    "type": "LineString"
  },
  "properties": {
    "name": "Katania → Civitavecchia",
    "rejs_id": "Rejs 3",
    "etap_nr": 3,
    "zakres_dni": "Dni 5–5",
    "distance_nm": 354.6302710499015,
    "route_fingerprint": "476d83319ab9accde01878bc379c4ef050f34948e48c0773f245fc61606cf8ae"
  }
}