{
  "type": "Feature",
  "geometry": {
    "coordinates": [
      [
        11.79108,
        42.07901
      ],
      [
        11.765672499999999,
        42.0731725
      ],
      [
        11.764878515624998,
        42.072990078125
      ],
      [
        11.763290546875,
        42.072625234374996
      ],
      [
        11.760908593749999,
        42.07207796875
      ],
      [
        11.757732656249999,
        42.071348281249996
      ],
      [
        11.753762734375,
        42.070436171875
      ],
      [
        11.748998828124998,
        42.069341640625
      ],
      [
        11.743440937499999,
        42.0680646875
      ],
      [
        11.7370890625,
        42.0666053125
      ],
      [
        11.7289884375,
        42.0663100390625
      ],
      [
        11.719139062500002,
        42.06717886718751
      ],
      [
        11.707540937500003,
        42.069211796875
      ],
      [
        11.6941940625,
        42.072408828125
      ],
      [
        11.6790984375,
        42.0767699609375
      ],
      [
        11.6622540625,
        42.0822951953125
      ],
      [
        11.643660937500002,
        42.08898453125
      ],
      [
        11.6233190625,
        42.09683796875
      ],
      [
        11.6012284375,
        42.10585550781251
      ],
      [
        11.5773890625,
        42.1160371484375
      ],
      [
        11.5518009375,
        42.127382890625
      ],
      [
        11.524464062500002,
        42.139892734374996
      ],
      [
        11.495378437500001,
        42.1535666796875
      ],
      [
        11.4645440625,
        42.16840472656251
      ],
      [
        11.431960937500001,
        42.18440687500001
      ],
      [
        11.397629062500002,
        42.201573124999996
      ],
      [
        11.365271257812502,
        42.2177523125
      ],
      [
        11.334887523437501,
        42.232944437499995
      ],
      [
        11.306477859375,
        42.2471495
      ],
      [
        11.280042265625,
        42.26036750000001
      ],
      [
        11.255580742187501,
        42.27259843750001
      ],
      [
        11.233093289062502,
        42.283842312500006
      ],
      [
        11.212579906250003,
        42.294099125
      ],
      [
        11.19404059375,
        42.303368875000004
      ],
      [
        11.176445320312501,
        42.31216653125
      ],
      [
        11.159794085937502,
        42.320492093750005
      ],
      [
        11.144086890625001,
        42.328345562500004
      ],
      [
        11.129323734375003,
        42.3357269375
      ],
      [
        11.117702017187503,
        42.34153761875
      ],
      [
        11.109221739062502,
        42.34577760625
      ],
      [
        11.101026280000001,
        42.349875080000004
      ],
      [
        11.069383720000003,
        42.36569492
      ],
      [
        11.061789081250001,
        42.370521964062505
      ],
      [
        11.05451044375,
        42.3762210921875
      ],
      [
        11.0446911875,
        42.384220484375
      ],
      [
        11.032331312500002,
        42.394520140625005
      ],
      [
        11.019628218750002,
        42.4060214609375
      ],
      [
        11.006581906250002,
        42.418724445312506
      ],
      [
        10.993192375,
        42.43262909375001
      ],
      [
        10.979459624999999,
        42.447735406250004
      ],
      [
        10.964353624999998,
        42.4645583515625
      ],
      [
        10.947874375000001,
        42.4830979296875
      ],
      [
        10.930021875000001,
        42.50335414062501
      ],
      [
        10.910796124999997,
        42.525326984375
      ],
      [
        10.890197124999998,
        42.5490164609375
      ],
      [
        10.868224875,
        42.5744225703125
      ],
      [
        10.844879374999998,
        42.6015453125
      ],
      [
        10.820160625,
        42.630384687500005
      ],
      [
        10.796471796875,
        42.65767910156251
      ],
      [
        10.773812890624999,
        42.6834285546875
      ],
      [
        10.75218390625,
        42.707633046875
      ],
      [
        10.73158484375,
        42.730292578125
      ],
      [
        10.712015703125,
        42.7514071484375
      ],
      [
        10.693476484375,
        42.770976757812505
      ],
      [
        10.6759671875,
        42.78900140625
      ],
      [
        10.659487812499998,
        42.805481093750004
      ],
      [
        10.644038359375,
        42.820415820312505
      ],
      [
        10.629618828125,
        42.8338055859375
      ],
      [
        10.61622921875,
        42.845650390624996
      ],
      [
        10.603869531249998,
        42.855950234375
      ],
      [
        10.592539765624998,
        42.8647051171875
      ],
      [
        10.582239921874999,
        42.8719150390625
      ],
      [
        10.572969999999998,
        42.87758
      ],
      [
        10.56473,
        42.881699999999995
      ],
      [
        10.55752,
        42.885304999999995
      ],
      [
        10.55134,
        42.888394999999996
      ],
      [
        10.54619,
        42.890969999999996
      ],
      [
        10.542069999999999,
        42.893029999999996
      ],
      [
        10.538979999999999,
        42.894574999999996
      ],
      [
        10.536919999999999,
        42.895604999999996
      ],
      [
        10.535889999999998,
        42.896119999999996
      ],
      [
        10.50293,
        42.9126
      ],
      [
        10.41504,
        42.95654
      ],
      [
        10.4074654296875,
        42.9617005859375
      ],
      [
        10.3923162890625,
        42.9720217578125
      ],
      [
        10.369592578125,
        42.987503515625
      ],
      [
        10.339294296875,
        43.00814585937499
      ],
      [
        10.3014214453125,
        43.03394878906249
      ],
      [
        10.2559740234375,
        43.064912304687496
      ],
      [
        10.20295203125,
        43.101036406249996
      ],
      [
        10.142355468749999,
        43.14232109375
      ],
      [
        10.074184335937499,
        43.1887663671875
      ],
      [
        9.998438632812501,
        43.2403722265625
      ],
      [
        9.915118359375,
        43.297138671875004
      ],
      [
        9.824223515625,
        43.359065703125005
      ],
      [
        9.7257541015625,
        43.42615332031251
      ],
      [
        9.619710117187498,
        43.498401523437494
      ],
      [
        9.5060915625,
        43.575810312499996
      ],
      [
        9.384898437499999,
        43.6583796875
      ],
      [
        9.2712798828125,
        43.735788476562504
      ],
      [
        9.165235898437498,
        43.808036679687504
      ],
      [
        9.066766484374998,
        43.875124296875
      ],
      [
        8.975871640625,
        43.937051328125
      ],
      [
        8.892551367187501,
        43.9938177734375
      ],
      [
        8.8168056640625,
        44.0454236328125
      ],
      [
        8.74863453125,
        44.091868906250006
      ],
      [
        8.688037968749999,
        44.133153593749995
      ],
      [
        8.6350159765625,
        44.1692776953125
      ],
      [
        8.5895685546875,
        44.2002412109375
      ],
      [
        8.551695703124999,
        44.226044140625
      ],
      [
        8.521397421875,
        44.246686484375005
      ],
      [
        8.4986737109375,
        44.2621682421875
      ],
      [
        8.4835245703125,
        44.272489414062505
      ],
      [
        8.47595,
        44.27765
      ],
      [
        8.4810315,
        44.3080251
      ]
    ],
    "type": "LineString"
  },
  "properties": {
    "name": "Civitavecchia → Savona",
    "rejs_id": "Rejs 3",
    "etap_nr": 4,
    "zakres_dni": "Dni 6–6",
    "distance_nm": 201.2553824587319,
    "route_fingerprint": "2eb16f94826f9efc75270bbf2895c11901333522d1cb7d8f7ab8fde0bf9a263e"
  }
}