{
  "type": "Feature",
  "geometry": {
    "coordinates": [
      [
        8.4810315,
        44.3080251
      ],
      [
        8.47595,
        44.27765
      ],
      [
        8.50342,
        44.26392
      ],
      [
        8.503505820312501,
        44.26353375000001
      ],
      [
        8.5036774609375,
        44.26276125
      ],
      [
        8.503934921875,
        44.2616025
      ],
      [
        8.504278203125,
        44.2600575
      ],
      [
        8.5047073046875,
        44.258126250000004
      ],
      [
        8.505222226562502,
        44.25580875
      ],
      [
        8.505822968750001,
        44.253105
      ],
      [
        8.50650953125,
        44.250015
      ],
      [
        8.5072819140625,
        44.24653875
      ],
      [
        8.508140117187502,
        44.24267624999999
      ],
      [
        8.509084140625001,
        44.238427499999986
      ],
      [
        8.510113984375,
        44.23379250000001
      ],
      [
        8.5112296484375,
        44.22877125000001
      ],
      [
        8.5124311328125,
        44.223363750000004
      ],
      [
        8.5137184375,
        44.217569999999995
      ],
      [
        8.5150915625,
        44.211389999999994
      ],
      [
        8.5119156640625,
        44.20130472656249
      ],
      [
        8.5041907421875,
        44.18731417968749
      ],
      [
        8.491916796875,
        44.169418359374994
      ],
      [
        8.475093828124999,
        44.147617265625
      ],
      [
        8.453721835937499,
        44.121910898437505
      ],
      [
        8.4278008203125,
        44.0922992578125
      ],
      [
        8.39733078125,
        44.058782343749996
      ],
      [
        8.362311718749998,
        44.02136015625
      ],
      [
        8.322743632812498,
        43.9800326953125
      ],
      [
        8.2786265234375,
        43.9347999609375
      ],
      [
        8.229960390625,
        43.885661953125
      ],
      [
        8.176745234375,
        43.832618671875004
      ],
      [
        8.118981054687499,
        43.7756701171875
      ],
      [
        8.056667851562501,
        43.714816289062504
      ],
      [
        7.989805625000001,
        43.6500571875
      ],
      [
        7.918394375,
        43.58139281249999
      ],
      [
        7.8469831249999995,
        43.516504960937496
      ],
      [
        7.775571875,
        43.455393632812495
      ],
      [
        7.704160625,
        43.398058828124995
      ],
      [
        7.6327493749999995,
        43.344500546875
      ],
      [
        7.561338125,
        43.2947187890625
      ],
      [
        7.489926875,
        43.2487135546875
      ],
      [
        7.4185156249999995,
        43.20648484375
      ],
      [
        7.347104375,
        43.16803265625
      ],
      [
        7.275693125,
        43.1333569921875
      ],
      [
        7.2042818749999995,
        43.102457851562505
      ],
      [
        7.132870625,
        43.075335234375004
      ],
      [
        7.061459375,
        43.051989140625
      ],
      [
        6.9900481249999995,
        43.0324195703125
      ],
      [
        6.918636875000001,
        43.016626523437495
      ],
      [
        6.847225625000001,
        43.00461
      ],
      [
        6.7758143749999995,
        42.99637
      ],
      [
        6.707630375,
        42.98871367187499
      ],
      [
        6.6426736250000005,
        42.981641015625
      ],
      [
        6.580944125,
        42.97515203125
      ],
      [
        6.522441875,
        42.96924671875
      ],
      [
        6.467166875,
        42.963925078125
      ],
      [
        6.415119125,
        42.959187109375
      ],
      [
        6.366298625000001,
        42.9550328125
      ],
      [
        6.320705375,
        42.9514621875
      ],
      [
        6.27092365625,
        42.948887265625
      ],
      [
        6.216953468749999,
        42.947308046874994
      ],
      [
        6.1587948125,
        42.94672453125
      ],
      [
        6.0964476874999995,
        42.94713671875
      ],
      [
        6.02991209375,
        42.948544609375006
      ],
      [
        5.959188031250001,
        42.950948203124995
      ],
      [
        5.8842755,
        42.9543475
      ],
      [
        5.805174500000001,
        42.9587425
      ],
      [
        5.7341243515624996,
        42.963386328125004
      ],
      [
        5.6711250546875,
        42.968278984375
      ],
      [
        5.616176609375,
        42.97342046875
      ],
      [
        5.569279015625,
        42.978810781250004
      ],
      [
        5.5304322734375,
        42.984449921875004
      ],
      [
        5.499636382812501,
        42.990337890625
      ],
      [
        5.47689134375,
        42.9964746875
      ],
      [
        5.46219715625,
        43.002860312500005
      ],
      [
        5.448138101562501,
        43.009906796875
      ],
      [
        5.4347141796875,
        43.017614140625
      ],
      [
        5.421925390625001,
        43.02598234375
      ],
      [
        5.409771734375001,
        43.03501140625
      ],
      [
        5.398253210937501,
        43.044701328125
      ],
      [
        5.3873698203125,
        43.055052109375005
      ],
      [
        5.377121562499999,
        43.066063750000005
      ],
      [
        5.3675084375000015,
        43.07773625
      ],
      [
        5.358496132812501,
        43.08867921875
      ],
      [
        5.3500846484375,
        43.09889265625
      ],
      [
        5.342273984375,
        43.1083765625
      ],
      [
        5.335064140625001,
        43.1171309375
      ],
      [
        5.3284551171875005,
        43.12515578125
      ],
      [
        5.3224469140625,
        43.13245109375
      ],
      [
        5.31703953125,
        43.139016875
      ],
      [
        5.31223296875,
        43.144853125000004
      ],
      [
        5.3080272265624995,
        43.149959843750004
      ],
      [
        5.3044223046875,
        43.15433703125
      ],
      [
        5.3014182031249995,
        43.157984687500004
      ],
      [
        5.299014921875001,
        43.160902812500005
      ],
      [
        5.297212460937501,
        43.163091406250004
      ],
      [
        5.2960108203125005,
        43.16455046875001
      ],
      [
        5.29541,
        43.16528
      ],
      [
        5.29541,
        43.2312
      ],
      [
        5.2954529296875,
        43.231264375
      ],
      [
        5.2955387890625,
        43.231393125000004
      ],
      [
        5.295667578125,
        43.23158625000001
      ],
      [
        5.295839296875,
        43.23184375
      ],
      [
        5.2960539453125,
        43.232165625
      ],
      [
        5.2963115234375,
        43.232551875
      ],
      [
        5.29661203125,
        43.2330025
      ],
      [
        5.296955468750001,
        43.233517500000005
      ],
      [
        5.2972645625000006,
        43.23398100000001
      ],
      [
        5.297539312500001,
        43.234393000000004
      ],
      [
        5.297676687500001,
        43.234599
      ],
      [
        5.299325187500001,
        43.237071
      ],
      [
        5.299548421875,
        43.23740574999999
      ],
      [
        5.299994890624999,
        43.23807525000001
      ],
      [
        5.3005615624999995,
        43.23892500000001
      ],
      [
        5.301248437500001,
        43.239954999999995
      ],
      [
        5.301849453125001,
        43.24085625
      ],
      [
        5.302364609375001,
        43.241628750000004
      ],
      [
        5.302793906250001,
        43.2422725
      ],
      [
        5.3031373437500005,
        43.242787500000006
      ],
      [
        5.303394921875,
        43.243173750000004
      ],
      [
        5.303566640625,
        43.24343125
      ],
      [
        5.3036525,
        43.24356
      ],
      [
        5.3064,
        43.24768
      ],
      [
        5.32837,
        43.25867
      ],
      [
        5.3283914453125,
        43.258745078125
      ],
      [
        5.3284343359375,
        43.258895234375004
      ],
      [
        5.328498671875,
        43.259120468750005
      ],
      [
        5.328584453125,
        43.25942078125
      ],
      [
        5.3286916796875,
        43.259796171875
      ],
      [
        5.3288203515625,
        43.260246640625
      ],
      [
        5.328970468750001,
        43.260772187499995
      ],
      [
        5.329142031249999,
        43.2613728125
      ],
      [
        5.329335039062499,
        43.262048515625
      ],
      [
        5.3295494921875,
        43.262799296875
      ],
      [
        5.329785390625,
        43.26362515625
      ],
      [
        5.330042734374999,
        43.26452609375
      ],
      [
        5.330321523437499,
        43.265502109375
      ],
      [
        5.3306217578125,
        43.26655320312501
      ],
      [
        5.3309434375,
        43.267679375
      ],
      [
        5.331286562499999,
        43.268880624999994
      ],
      [
        5.3316082421874995,
        43.270006796874995
      ],
      [
        5.3319084765625,
        43.271057890625
      ],
      [
        5.3321872656250004,
        43.27203390625
      ],
      [
        5.332444609374999,
        43.27293484375
      ],
      [
        5.3326805078124995,
        43.273760703125006
      ],
      [
        5.3328949609375,
        43.27451148437501
      ],
      [
        5.33308796875,
        43.27518718750001
      ],
      [
        5.333259531249999,
        43.275787812499985
      ],
      [
        5.333409648437499,
        43.27631335937498
      ],
      [
        5.333538320312499,
        43.276763828125
      ],
      [
        5.333645546874999,
        43.277139218749994
      ],
      [
        5.333731328124999,
        43.277439531249996
      ],
      [
        5.3337956640624995,
        43.277664765625005
      ],
      [
        5.3338385546875,
        43.27781492187499
      ],
      [
        5.33386,
        43.27789
      ],
      [
        5.32837,
        43.3136
      ],
      [
        5.34485,
        43.31635
      ],
      [
        5.35309,
        43.31772
      ],
      [
        5.35858,
        43.31772
      ],
      [
        5.36407,
        43.31497
      ],
      [
        5.36682,
        43.31085
      ],
      [
        5.37506,
        43.30673
      ],
      [
        5.3777888,
        43.2963986
      ]
    ],
    "type": "LineString"
  },
  "properties": {
    "name": "Savona → Marsylia",
    "rejs_id": "Rejs 3",
    "etap_nr": 5,
    "zakres_dni": "Dni 7–7",
    "distance_nm": 198.16870148809568,
    "route_fingerprint": "7747398abd03e5156e98ebe92930780f85b546744043fd18b88f088d282c91d8"
  }
}