{
  "type": "Feature",
  "geometry": {
    "coordinates": [
      [
        5.3777888,
        43.2963986
      ],
      [
        5.36407,
        43.31497
      ],
      [
        5.35858,
        43.31497
      ],
      [
        5.35858,
        43.31772
      ],
      [
        5.35309,
        43.31772
      ],
      [
        5.34485,
        43.31635
      ],
      [
        5.32837,
        43.3136
      ],
      [
        5.326309999999999,
        43.31257
      ],
      [
        5.326052499999999,
        43.312441250000006
      ],
      [
        5.325537499999999,
        43.31218375
      ],
      [
        5.324764999999999,
        43.311797500000004
      ],
      [
        5.323735,
        43.311282500000004
      ],
      [
        5.322576250000001,
        43.310703125
      ],
      [
        5.321288750000001,
        43.310059375
      ],
      [
        5.319872500000001,
        43.30935125
      ],
      [
        5.3183275000000005,
        43.30857875
      ],
      [
        5.31665375,
        43.307741875
      ],
      [
        5.31485125,
        43.306840625
      ],
      [
        5.31292,
        43.305875
      ],
      [
        5.31086,
        43.304845
      ],
      [
        5.30892875,
        43.303879375
      ],
      [
        5.30712625,
        43.302978124999996
      ],
      [
        5.3054524999999995,
        43.30214125
      ],
      [
        5.303907499999999,
        43.30136875
      ],
      [
        5.302491249999999,
        43.300660625000006
      ],
      [
        5.301203749999999,
        43.300016875000004
      ],
      [
        5.300045,
        43.2994375
      ],
      [
        5.299015000000001,
        43.2989225
      ],
      [
        5.298113750000001,
        43.298471875000004
      ],
      [
        5.297341250000001,
        43.298085625000006
      ],
      [
        5.2966975000000005,
        43.29776375
      ],
      [
        5.2961825000000005,
        43.29750625
      ],
      [
        5.29579625,
        43.297313125
      ],
      [
        5.29553875,
        43.297184375
      ],
      [
        5.29541,
        43.29712
      ],
      [
        5.25146,
        43.29712
      ],
      [
        5.241246171875,
        43.28969562499999
      ],
      [
        5.220818515625,
        43.274846874999994
      ],
      [
        5.19017703125,
        43.252573749999996
      ],
      [
        5.14932171875,
        43.22287625
      ],
      [
        5.098252578125001,
        43.185754374999995
      ],
      [
        5.036969609374999,
        43.141208125000006
      ],
      [
        4.9654728125,
        43.0892375
      ],
      [
        4.8837621874999995,
        43.029842499999994
      ],
      [
        4.791837734374999,
        42.96302312499999
      ],
      [
        4.689699453125,
        42.888779375000006
      ],
      [
        4.57734734375,
        42.807111250000005
      ],
      [
        4.4547814062499995,
        42.71801875
      ],
      [
        4.322001640625,
        42.62150187499999
      ],
      [
        4.1790080468749995,
        42.517560625
      ],
      [
        4.025800625,
        42.406195
      ],
      [
        3.8623793749999993,
        42.287405
      ],
      [
        3.707626992187499,
        42.1757819140625
      ],
      [
        3.561543476562499,
        42.0713257421875
      ],
      [
        3.4241288281249993,
        41.974036484375
      ],
      [
        3.2953830468749996,
        41.883914140625
      ],
      [
        3.1753061328124996,
        41.8009587109375
      ],
      [
        3.0638980859374993,
        41.725170195312494
      ],
      [
        2.9611589062499997,
        41.656548593749996
      ],
      [
        2.86708859375,
        41.59509390625
      ],
      [
        2.7816871484375003,
        41.5408061328125
      ],
      [
        2.7049545703125,
        41.4936852734375
      ],
      [
        2.636890859375,
        41.453731328125
      ],
      [
        2.577496015625,
        41.42094429687499
      ],
      [
        2.5267700390625,
        41.39532417968749
      ],
      [
        2.4847129296874995,
        41.3768709765625
      ],
      [
        2.4513246874999997,
        41.3655846875
      ],
      [
        2.4266053125000004,
        41.361465312499995
      ],
      [
        2.4032163281250005,
        41.3576677734375
      ],
      [
        2.381157734375,
        41.35419207031249
      ],
      [
        2.3604295312500003,
        41.351038203125
      ],
      [
        2.34103171875,
        41.348206171875006
      ],
      [
        2.3229642968750004,
        41.3456959765625
      ],
      [
        2.306227265625,
        41.3435076171875
      ],
      [
        2.2908206250000003,
        41.34164109375
      ],
      [
        2.276744375,
        41.340096406250005
      ],
      [
        2.263998515625,
        41.33887355468751
      ],
      [
        2.2525830468750003,
        41.337972539062505
      ],
      [
        2.2424979687500004,
        41.337393359375
      ],
      [
        2.2337432812499998,
        41.337136015625006
      ],
      [
        2.226318984375,
        41.337200507812504
      ],
      [
        2.220225078125,
        41.3375868359375
      ],
      [
        2.2154615625000003,
        41.338295
      ],
      [
        2.2120284375000003,
        41.339325
      ],
      [
        2.2087776953125005,
        41.34033890625
      ],
      [
        2.2057093359375,
        41.34133671875
      ],
      [
        2.2028233593750004,
        41.342318437500005
      ],
      [
        2.2001197656250002,
        41.343284062500004
      ],
      [
        2.1975985546875005,
        41.344233593750005
      ],
      [
        2.1952597265625,
        41.34516703125001
      ],
      [
        2.19310328125,
        41.346084375000004
      ],
      [
        2.19112921875,
        41.346985625
      ],
      [
        2.1893375390624996,
        41.34787078125
      ],
      [
        2.1877282421874997,
        41.34873984375
      ],
      [
        2.1863013281249994,
        41.349592812500006
      ],
      [
        2.185056796875,
        41.3504296875
      ],
      [
        2.1839946484375,
        41.351250468749996
      ],
      [
        2.1831148828124998,
        41.35205515625
      ],
      [
        2.1824174999999997,
        41.35284375
      ],
      [
        2.1819025000000005,
        41.35361625
      ],
      [
        2.1815162500000005,
        41.354195624999996
      ],
      [
        2.1812587500000005,
        41.354581875
      ],
      [
        2.1811300000000005,
        41.354775
      ],
      [
        2.1801000000000004,
        41.35632
      ],
      [
        2.17804,
        41.35941
      ]
    ],
    "type": "LineString"
  },
  "properties": {
    "name": "Marsylia → Barcelona",
    "rejs_id": "Rejs 3",
    "etap_nr": 6,
    "zakres_dni": "Dni 8–8",
    "distance_nm": 189.9861617299277,
    "route_fingerprint": "5a1c542d8adc518519793701ad06b95712c718952b47a956534e66aa1456db68"
  }
}