{
  "type": "Feature",
  "geometry": {
    "coordinates": [
      [
        2.17804,
        41.35941
      ],
      [
        2.18628,
        41.34705
      ],
      [
        2.1863383656249997,
        41.34699678437501
      ],
      [
        2.186455096875,
        41.346890353125005
      ],
      [
        2.18663019375,
        41.34673070625
      ],
      [
        2.18686365625,
        41.34651784374999
      ],
      [
        2.187038753125,
        41.346358196874995
      ],
      [
        2.1871554843750003,
        41.346251765625
      ],
      [
        2.18721385,
        41.34619855
      ],
      [
        2.20402315,
        41.33087245000001
      ],
      [
        2.206416140625,
        41.328690609375
      ],
      [
        2.211202121875,
        41.324326928125004
      ],
      [
        2.21838109375,
        41.317781406250006
      ],
      [
        2.22795305625,
        41.30905404375001
      ],
      [
        2.239801278125,
        41.29825127187501
      ],
      [
        2.253925759375,
        41.28537309062501
      ],
      [
        2.2703265,
        41.27041950000001
      ],
      [
        2.2890034999999997,
        41.25339050000001
      ],
      [
        2.29980121875,
        41.22740935937502
      ],
      [
        2.30271965625,
        41.19247607812501
      ],
      [
        2.2977588124999997,
        41.14859065625001
      ],
      [
        2.2849186875,
        41.095753093750005
      ],
      [
        2.26419928125,
        41.033963390625004
      ],
      [
        2.2356005937499996,
        40.963221546875005
      ],
      [
        2.1991226249999998,
        40.88352756250001
      ],
      [
        2.1547653749999998,
        40.79488143750001
      ],
      [
        2.1042798124999997,
        40.695686703125006
      ],
      [
        2.0476659374999997,
        40.585943359375
      ],
      [
        1.9849237499999997,
        40.465651406250004
      ],
      [
        1.9160532499999998,
        40.33481084374999
      ],
      [
        1.8410544375,
        40.193421671874994
      ],
      [
        1.7599273125,
        40.041483890624995
      ],
      [
        1.672671875,
        39.8789975
      ],
      [
        1.5792881250000002,
        39.7059625
      ],
      [
        1.4800678515625,
        39.535159140625
      ],
      [
        1.3750110546875,
        39.366587421874996
      ],
      [
        1.264117734375,
        39.20024734375
      ],
      [
        1.1473878906250001,
        39.03613890625
      ],
      [
        1.0248215234375002,
        38.874262109375
      ],
      [
        0.8964186328125001,
        38.714616953125
      ],
      [
        0.76217921875,
        38.5572034375
      ],
      [
        0.62210328125,
        38.4020215625
      ],
      [
        0.47619082031250004,
        38.249071328125
      ],
      [
        0.3244418359375001,
        38.098352734375
      ],
      [
        0.16685632812500006,
        37.94986578125
      ],
      [
        0.003434296875000062,
        37.80361046875
      ],
      [
        -0.16582425781249993,
        37.659586796875004
      ],
      [
        -0.34091933593749996,
        37.517794765625
      ],
      [
        -0.5218509374999999,
        37.378234375000005
      ],
      [
        -0.7086190624999998,
        37.240905624999996
      ],
      [
        -0.8969320703124999,
        37.111215781249996
      ],
      [
        -1.0867899609374998,
        36.989164843750004
      ],
      [
        -1.2781927343749997,
        36.874752812500006
      ],
      [
        -1.4711403906249996,
        36.7679796875
      ],
      [
        -1.6656329296874997,
        36.66884546875001
      ],
      [
        -1.8616703515624997,
        36.577350156250006
      ],
      [
        -2.0592526562499995,
        36.49349375
      ],
      [
        -2.2583798437499993,
        36.41727625
      ],
      [
        -2.4590519140624996,
        36.348697656249996
      ],
      [
        -2.6612688671874998,
        36.28775796874999
      ],
      [
        -2.865030703125,
        36.2344571875
      ],
      [
        -3.0703374218749997,
        36.1887953125
      ],
      [
        -3.2771890234375,
        36.15077234375
      ],
      [
        -3.4855855078125,
        36.12038828125
      ],
      [
        -3.6955268749999997,
        36.097643125
      ],
      [
        -3.907013124999999,
        36.082536875
      ],
      [
        -4.107135437499998,
        36.0679284375
      ],
      [
        -4.295893812499999,
        36.0538178125
      ],
      [
        -4.4732882499999995,
        36.040205
      ],
      [
        -4.639318749999999,
        36.02709
      ],
      [
        -4.7939853125,
        36.0144728125
      ],
      [
        -4.9372879375,
        36.0023534375
      ],
      [
        -5.069226625,
        35.990731874999994
      ],
      [
        -5.189801375,
        35.979608125
      ],
      [
        -5.30123693125,
        35.96844659375
      ],
      [
        -5.40353329375,
        35.957247281250005
      ],
      [
        -5.4966904625,
        35.9460101875
      ],
      [
        -5.5807084375,
        35.934735312499996
      ],
      [
        -5.691183118750001,
        35.91485315625
      ],
      [
        -5.82811450625,
        35.88636371875
      ],
      [
        -5.9915026000000005,
        35.849267
      ],
      [
        -6.1813474,
        35.803563000000004
      ],
      [
        -6.335165415624999,
        35.759406710937505
      ],
      [
        -6.452956646875,
        35.7167981328125
      ],
      [
        -6.53472109375,
        35.675737265625
      ],
      [
        -6.58045875625,
        35.636224109375
      ],
      [
        -6.625765534375,
        35.5896891640625
      ],
      [
        -6.670641428125,
        35.536132429687505
      ],
      [
        -6.7150864375,
        35.47555390625
      ],
      [
        -6.7591005625,
        35.40795359375
      ],
      [
        -6.804908546875,
        35.332795898437496
      ],
      [
        -6.852510390624998,
        35.250080820312505
      ],
      [
        -6.901906093749998,
        35.159808359375
      ],
      [
        -6.9530956562499995,
        35.061978515625
      ],
      [
        -7.0060790781249995,
        34.9565912890625
      ],
      [
        -7.060856359374999,
        34.843646679687495
      ],
      [
        -7.1174275,
        34.723144687499996
      ],
      [
        -7.1757925,
        34.595085312500004
      ],
      [
        -7.2305096875,
        34.4750296484375
      ],
      [
        -7.281579062499999,
        34.3629776953125
      ],
      [
        -7.329000624999999,
        34.258929453125
      ],
      [
        -7.3727743750000005,
        34.162884921875005
      ],
      [
        -7.412900312500001,
        34.074844101562505
      ],
      [
        -7.4493784375,
        33.9948069921875
      ],
      [
        -7.48220875,
        33.92277359375
      ],
      [
        -7.51139125,
        33.85874390625
      ],
      [
        -7.5369259375,
        33.8027179296875
      ],
      [
        -7.558812812499999,
        33.754695664062496
      ],
      [
        -7.5770518749999995,
        33.714677109374996
      ],
      [
        -7.591643125,
        33.682662265625
      ],
      [
        -7.6025865625,
        33.658651132812494
      ],
      [
        -7.609882187499999,
        33.6426437109375
      ],
      [
        -7.61353,
        33.63464
      ],
      [
        -7.6200284,
        33.5945144
      ]
    ],
    "type": "LineString"
  },
  "properties": {
    "name": "Barcelona → Casablanca",
    "rejs_id": "Rejs 3",
    "etap_nr": 7,
    "zakres_dni": "Dni 9–11",
    "distance_nm": 731.9079934815276,
    "route_fingerprint": "be28313264201ca07e376b553690e13f4ab5a89d2f77ebc080330482afc67282"
  }
}