{
  "type": "Feature",
  "geometry": {
    "coordinates": [
      [
        -7.6200284,
        33.5945144
      ],
      [
        -7.61353,
        33.63464
      ],
      [
        -7.6136587109375,
        33.6349189453125
      ],
      [
        -7.613916132812499,
        33.635476835937496
      ],
      [
        -7.614302265625,
        33.636313671875
      ],
      [
        -7.614817109375,
        33.637429453124994
      ],
      [
        -7.6154606640625,
        33.6388241796875
      ],
      [
        -7.6162329296875,
        33.6404978515625
      ],
      [
        -7.61713390625,
        33.64245046875
      ],
      [
        -7.618163593749999,
        33.64468203125
      ],
      [
        -7.6193219921874995,
        33.6471925390625
      ],
      [
        -7.620609101562501,
        33.6499819921875
      ],
      [
        -7.622024921875,
        33.653050390625
      ],
      [
        -7.623569453125,
        33.656397734375005
      ],
      [
        -7.625242695312499,
        33.6600240234375
      ],
      [
        -7.6270446484375,
        33.663929257812505
      ],
      [
        -7.6289753125,
        33.668113437500004
      ],
      [
        -7.631034687500001,
        33.67257656249999
      ],
      [
        -7.652534765625001,
        33.66869269531249
      ],
      [
        -7.693475546875,
        33.65646183593749
      ],
      [
        -7.75385703125,
        33.63588398437499
      ],
      [
        -7.833679218750001,
        33.606959140624994
      ],
      [
        -7.932942109375002,
        33.56968730468749
      ],
      [
        -8.051645703125,
        33.5240684765625
      ],
      [
        -8.18979,
        33.47010265625
      ],
      [
        -8.347375000000001,
        33.40778984375
      ],
      [
        -8.524400703125,
        33.3371300390625
      ],
      [
        -8.720867109375002,
        33.25812324218751
      ],
      [
        -8.936774218750001,
        33.170769453125004
      ],
      [
        -9.172122031250002,
        33.075068671875
      ],
      [
        -9.426910546875,
        32.9710208984375
      ],
      [
        -9.701139765625001,
        32.8586261328125
      ],
      [
        -9.994809687500002,
        32.737884375
      ],
      [
        -10.307920312499999,
        32.608795625
      ],
      [
        -10.612190351562498,
        32.4743423828125
      ],
      [
        -10.9076198046875,
        32.3345246484375
      ],
      [
        -11.194208671875,
        32.189342421875
      ],
      [
        -11.471956953124998,
        32.038795703125004
      ],
      [
        -11.740864648437498,
        31.8828844921875
      ],
      [
        -12.0009317578125,
        31.7216087890625
      ],
      [
        -12.25215828125,
        31.55496859375
      ],
      [
        -12.49454421875,
        31.38296390625
      ],
      [
        -12.7280895703125,
        31.205594726562502
      ],
      [
        -12.9527943359375,
        31.0228610546875
      ],
      [
        -13.168658515625001,
        30.834762890625
      ],
      [
        -13.375682109375001,
        30.641300234375002
      ],
      [
        -13.573865117187502,
        30.4424730859375
      ],
      [
        -13.763207539062503,
        30.238281445312502
      ],
      [
        -13.943709375000001,
        30.0287253125
      ],
      [
        -14.115370625,
        29.8138046875
      ],
      [
        -14.276303046875002,
        29.6123166015625
      ],
      [
        -14.426506640625,
        29.4242610546875
      ],
      [
        -14.56598140625,
        29.249638046875
      ],
      [
        -14.694727343750001,
        29.088447578125
      ],
      [
        -14.812744453125,
        28.9406896484375
      ],
      [
        -14.920032734374999,
        28.8063642578125
      ],
      [
        -15.0165921875,
        28.68547140625
      ],
      [
        -15.102422812499999,
        28.57801109375
      ],
      [
        -15.177524609375,
        28.4839833203125
      ],
      [
        -15.241897578125,
        28.403388085937497
      ],
      [
        -15.295541718749998,
        28.336225390624996
      ],
      [
        -15.33845703125,
        28.282495234375002
      ],
      [
        -15.370643515625,
        28.2421976171875
      ],
      [
        -15.392101171874998,
        28.2153325390625
      ],
      [
        -15.40283,
        28.2019
      ],
      [
        -15.39185,
        28.14148
      ],
      [
        -15.40833,
        28.13324
      ],
      [
        -15.40833,
        28.12775
      ],
      [
        -15.41656,
        28.12637
      ],
      [
        -15.4349015,
        28.1288694
      ]
    ],
    "type": "LineString"
  },
  "properties": {
    "name": "Casablanca → Las Palmas",
    "rejs_id": "Rejs 3",
    "etap_nr": 8,
    "zakres_dni": "Dni 12–13",
    "distance_nm": 538.4941063953601,
    "route_fingerprint": "766d313af6d6428778d5ad3a71f4d6fa053bb544a581ce57e2dce10fd71e2053"
  }
}